[
    {
        "Altitude(m)": 706658.5912013461,
        "Argument of Periapsis(deg)": 0.010251109067964361,
        "Eccentricity": 0.0,
        "Inclination(deg)": 45.0,
        "Latitude(deg)": 42.236595773964204,
        "Longitude(deg)": 159.74748971213987,
        "Mean Anomaly(deg)": 108.5616949827327,
        "RAAN(deg)": 144.99032325268763,
        "Satellite Name": "Constellation 1 644",
        "Satellite Number": 644,
        "Semi-Major Axis(m)": 7083131.272910544,
        "Time(s)": 171
    },
    {
        "Altitude(m)": 706654.5167011087,
        "Argument of Periapsis(deg)": 0.010311057074209765,
        "Eccentricity": 0.0,
        "Inclination(deg)": 45.0,
        "Latitude(deg)": 42.21808305058798,
        "Longitude(deg)": 159.82131602741384,
        "Mean Anomaly(deg)": 108.62239612298265,
        "RAAN(deg)": 144.99026666352205,
        "Satellite Name": "Constellation 1 644",
        "Satellite Number": 644,
        "Semi-Major Axis(m)": 7083131.272910544,
        "Time(s)": 172
    },
    {
        "Altitude(m)": 706650.4314368821,
        "Argument of Periapsis(deg)": 0.010371005080455171,
        "Eccentricity": 0.0,
        "Inclination(deg)": 45.0,
        "Latitude(deg)": 42.19951736752366,
        "Longitude(deg)": 159.89509679639966,
        "Mean Anomaly(deg)": 108.68309726323254,
        "RAAN(deg)": 144.9902100743565,
        "Satellite Name": "Constellation 1 644",
        "Satellite Number": 644,
        "Semi-Major Axis(m)": 7083131.272910544,
        "Time(s)": 173
    },
    {
        "Altitude(m)": 706646.3354330524,
        "Argument of Periapsis(deg)": 0.010430953086700577,
        "Eccentricity": 0.0,
        "Inclination(deg)": 45.0,
        "Latitude(deg)": 42.180898789525685,
        "Longitude(deg)": 159.96883194561056,
        "Mean Anomaly(deg)": 108.74379840348243,
        "RAAN(deg)": 144.99015348519094,
        "Satellite Name": "Constellation 1 644",
        "Satellite Number": 644,
        "Semi-Major Axis(m)": 7083131.272910544,
        "Time(s)": 174
    },
    {
        "Altitude(m)": 706642.2287140668,
        "Argument of Periapsis(deg)": 0.010490901092945983,
        "Eccentricity": 0.0,
        "Inclination(deg)": 45.0,
        "Latitude(deg)": 42.16222738143492,
        "Longitude(deg)": 160.04252140211597,
        "Mean Anomaly(deg)": 108.80449954373235,
        "RAAN(deg)": 144.99009689602534,
        "Satellite Name": "Constellation 1 644",
        "Satellite Number": 644,
        "Semi-Major Axis(m)": 7083131.272910544,
        "Time(s)": 175
    },
    {
        "Altitude(m)": 706638.1113044488,
        "Argument of Periapsis(deg)": 0.010550849099191389,
        "Eccentricity": 0.0,
        "Inclination(deg)": 45.0,
        "Latitude(deg)": 42.143503208177926,
        "Longitude(deg)": 160.11616509354073,
        "Mean Anomaly(deg)": 108.86520068398222,
        "RAAN(deg)": 144.99004030685978,
        "Satellite Name": "Constellation 1 644",
        "Satellite Number": 644,
        "Semi-Major Axis(m)": 7083131.272910544,
        "Time(s)": 176
    },
    {
        "Altitude(m)": 706633.9832287884,
        "Argument of Periapsis(deg)": 0.010610797105436795,
        "Eccentricity": 0.0,
        "Inclination(deg)": 45.0,
        "Latitude(deg)": 42.124726334766024,
        "Longitude(deg)": 160.18976294806473,
        "Mean Anomaly(deg)": 108.92590182423211,
        "RAAN(deg)": 144.9899837176942,
        "Satellite Name": "Constellation 1 644",
        "Satellite Number": 644,
        "Semi-Major Axis(m)": 7083131.272910544,
        "Time(s)": 177
    },
    {
        "Altitude(m)": 706629.8445117356,
        "Argument of Periapsis(deg)": 0.0106707451116822,
        "Eccentricity": 0.0,
        "Inclination(deg)": 45.0,
        "Latitude(deg)": 42.10589682629477,
        "Longitude(deg)": 160.2633147263253,
        "Mean Anomaly(deg)": 108.98660296448199,
        "RAAN(deg)": 144.98992712852865,
        "Satellite Name": "Constellation 1 644",
        "Satellite Number": 644,
        "Semi-Major Axis(m)": 7083131.272910544,
        "Time(s)": 178
    },
    {
        "Altitude(m)": 706625.6951780119,
        "Argument of Periapsis(deg)": 0.010730693117927606,
        "Eccentricity": 0.0,
        "Inclination(deg)": 45.0,
        "Latitude(deg)": 42.08701474794185,
        "Longitude(deg)": 160.33682069380538,
        "Mean Anomaly(deg)": 109.04730410473195,
        "RAAN(deg)": 144.98987053936307,
        "Satellite Name": "Constellation 1 644",
        "Satellite Number": 644,
        "Semi-Major Axis(m)": 7083131.272910544,
        "Time(s)": 179
    },
    {
        "Altitude(m)": 706621.5352524044,
        "Argument of Periapsis(deg)": 0.01079064112417301,
        "Eccentricity": 0.0,
        "Inclination(deg)": 45.0,
        "Latitude(deg)": 42.06808016496809,
        "Longitude(deg)": 160.41028061224958,
        "Mean Anomaly(deg)": 109.10800524498183,
        "RAAN(deg)": 144.9898139501975,
        "Satellite Name": "Constellation 1 644",
        "Satellite Number": 644,
        "Semi-Major Axis(m)": 7083131.272910544,
        "Time(s)": 180
    },
    {
        "Altitude(m)": 706617.3647597699,
        "Argument of Periapsis(deg)": 0.010850589130418416,
        "Eccentricity": 0.0,
        "Inclination(deg)": 45.0,
        "Latitude(deg)": 42.04909314271528,
        "Longitude(deg)": 160.48369441205287,
        "Mean Anomaly(deg)": 109.1687063852317,
        "RAAN(deg)": 144.98975736103193,
        "Satellite Name": "Constellation 1 644",
        "Satellite Number": 644,
        "Semi-Major Axis(m)": 7083131.272910544,
        "Time(s)": 181
    },
    {
        "Altitude(m)": 706613.1837250289,
        "Argument of Periapsis(deg)": 0.01091053713666382,
        "Eccentricity": 0.0,
        "Inclination(deg)": 45.0,
        "Latitude(deg)": 42.03005374660571,
        "Longitude(deg)": 160.5570620241624,
        "Mean Anomaly(deg)": 109.22940752548165,
        "RAAN(deg)": 144.98970077186638,
        "Satellite Name": "Constellation 1 644",
        "Satellite Number": 644,
        "Semi-Major Axis(m)": 7083131.272910544,
        "Time(s)": 182
    },
    {
        "Altitude(m)": 706608.9921731617,
        "Argument of Periapsis(deg)": 0.010970485142909228,
        "Eccentricity": 0.0,
        "Inclination(deg)": 45.0,
        "Latitude(deg)": 42.01096204214129,
        "Longitude(deg)": 160.63038338007703,
        "Mean Anomaly(deg)": 109.29010866573151,
        "RAAN(deg)": 144.9896441827008,
        "Satellite Name": "Constellation 1 644",
        "Satellite Number": 644,
        "Semi-Major Axis(m)": 7083131.272910544,
        "Time(s)": 183
    },
    {
        "Altitude(m)": 706604.7901292335,
        "Argument of Periapsis(deg)": 0.011030433149154634,
        "Eccentricity": 0.0,
        "Inclination(deg)": 45.0,
        "Latitude(deg)": 41.991818094902584,
        "Longitude(deg)": 160.7036584118467,
        "Mean Anomaly(deg)": 109.35080980598144,
        "RAAN(deg)": 144.98958759353522,
        "Satellite Name": "Constellation 1 644",
        "Satellite Number": 644,
        "Semi-Major Axis(m)": 7083131.272910544,
        "Time(s)": 184
    },
    {
        "Altitude(m)": 706600.5776183533,
        "Argument of Periapsis(deg)": 0.01109038115540004,
        "Eccentricity": 0.0,
        "Inclination(deg)": 45.0,
        "Latitude(deg)": 41.97262197054858,
        "Longitude(deg)": 160.7768868839747,
        "Mean Anomaly(deg)": 109.41151094623129,
        "RAAN(deg)": 144.98953100436967,
        "Satellite Name": "Constellation 1 644",
        "Satellite Number": 644,
        "Semi-Major Axis(m)": 7083131.272910544,
        "Time(s)": 185
    },
    {
        "Altitude(m)": 706596.3546657165,
        "Argument of Periapsis(deg)": 0.011150329161645444,
        "Eccentricity": 0.0,
        "Inclination(deg)": 45.0,
        "Latitude(deg)": 41.953373734814264,
        "Longitude(deg)": 160.850069065806,
        "Mean Anomaly(deg)": 109.47221208648125,
        "RAAN(deg)": 144.98947441520409,
        "Satellite Name": "Constellation 1 644",
        "Satellite Number": 644,
        "Semi-Major Axis(m)": 7083131.272910544,
        "Time(s)": 186
    },
    {
        "Altitude(m)": 706592.1212965642,
        "Argument of Periapsis(deg)": 0.01121027716789085,
        "Eccentricity": 0.0,
        "Inclination(deg)": 45.0,
        "Latitude(deg)": 41.93407345351174,
        "Longitude(deg)": 160.9232047229428,
        "Mean Anomaly(deg)": 109.53291322673114,
        "RAAN(deg)": 144.98941782603853,
        "Satellite Name": "Constellation 1 644",
        "Satellite Number": 644,
        "Semi-Major Axis(m)": 7083131.272910544,
        "Time(s)": 187
    },
    {
        "Altitude(m)": 706587.8775362205,
        "Argument of Periapsis(deg)": 0.011270225174136258,
        "Eccentricity": 0.0,
        "Inclination(deg)": 45.0,
        "Latitude(deg)": 41.914721192528205,
        "Longitude(deg)": 160.99629378963363,
        "Mean Anomaly(deg)": 109.59361436698099,
        "RAAN(deg)": 144.98936123687292,
        "Satellite Name": "Constellation 1 644",
        "Satellite Number": 644,
        "Semi-Major Axis(m)": 7083131.272910544,
        "Time(s)": 188
    },
    {
        "Altitude(m)": 706583.6234100703,
        "Argument of Periapsis(deg)": 0.011330173180381662,
        "Eccentricity": 0.0,
        "Inclination(deg)": 45.0,
        "Latitude(deg)": 41.89531701782534,
        "Longitude(deg)": 161.0693362006745,
        "Mean Anomaly(deg)": 109.65431550723088,
        "RAAN(deg)": 144.98930464770737,
        "Satellite Name": "Constellation 1 644",
        "Satellite Number": 644,
        "Semi-Major Axis(m)": 7083131.272910544,
        "Time(s)": 189
    }
]